STARLINK-2282           
1 48018U 21024AT  25207.58335648  .00158508  00000+0  18707-2 0  9999
2 48018  53.0232 204.1584 0008180  10.6970  34.9394 15.60292750240906
STARLINK-2285           
1 48019U 21024AU  25207.40809445  .00000407  00000+0  46233-4 0  9993
2 48019  53.0539 247.4397 0001101  89.1601 270.9515 15.06393117240284
STARLINK-2301           
1 48021U 21024AW  25207.25001157  .00338550  53816-4  10724-2 0  9998
2 48021  53.0462 173.1634 0005012  72.4343 182.8858 15.90739934241303
STARLINK-2298           
1 48022U 21024AX  25207.15933318  .00001093  00000+0  92304-4 0  9998
2 48022  53.0549 268.8342 0001136  79.6010 280.5107 15.06391484239953
STARLINK-2292           
1 48023U 21024AY  25207.54631301 -.00000129  00000+0  10204-4 0  9998
2 48023  53.0542 266.8158 0001030  88.1789 271.9318 15.06392706240016
STARLINK-2299           
1 48029U 21024BE  25207.45785610  .00000542  00000+0  55310-4 0  9992
2 48029  53.0542 267.2106 0001130  87.6939 272.4179 15.06393600240006
ONEWEB-0115             
1 48042U 21025A   25207.05943006 -.00000366  00000+0 -10374-2 0  9994
2 48042  87.8957  25.0035 0001845  91.8429 268.2911 13.13468334210794
ONEWEB-0152             
1 48043U 21025B   25206.99678993 -.00000155  00000+0 -45854-3 0  9995
2 48043  87.8959  25.0304 0001919  91.4256 268.7093 13.13469563210748
ONEWEB-0153             
1 48044U 21025C   25207.05096578 -.00000262  00000+0 -75268-3 0  9998
2 48044  87.8963  25.0176 0001744  89.9255 270.2074 13.13468521210748
ONEWEB-0154             
1 48045U 21025D   25207.58081983 -.00000108  00000+0 -32995-3 0  9990
2 48045  87.8960  24.9111 0001824  89.0298 271.1040 13.13467554210771
ONEWEB-0116             
1 48046U 21025E   25207.01033701  .00000118  00000+0  28916-3 0  9991
2 48046  87.8963  25.0053 0001940  92.7592 267.3759 13.13469407210839
ONEWEB-0150             
1 48047U 21025F   25206.98663356 -.00000304  00000+0 -86623-3 0  9990
2 48047  87.8958  25.0058 0001665  95.4260 264.7059 13.13469086210720
ONEWEB-0107             
1 48048U 21025G   25206.91214882 -.00000292  00000+0 -83495-3 0  9990
2 48048  87.8959  25.0187 0001577  83.0794 277.0515 13.13469761210692
ONEWEB-0101             
1 48049U 21025H   25207.02726350  .00000300  00000+0  78724-3 0  9999
2 48049  87.8963  25.0353 0001772  85.6300 274.5032 13.13470530210682
ONEWEB-0113             
1 48050U 21025J   25207.55461110  .00007973  00000+0  21632-1 0  9996
2 48050  87.8960  24.8797 0002118  98.5648 261.5721 13.13936243210840
ONEWEB-0112             
1 48051U 21025K   25206.99340536 -.00000256  00000+0 -73686-3 0  9999
2 48051  87.8958  24.9991 0001715  92.5688 267.5637 13.13469515210783
ONEWEB-0156             
1 48052U 21025L   25206.92569046 -.00000008  00000+0 -56267-4 0  9994
2 48052  87.8960  25.0250 0001636  90.2952 269.8364 13.13469850210759
ONEWEB-0161             
1 48053U 21025M   25207.05266924 -.00000263  00000+0 -75482-3 0  9991
2 48053  87.8963  25.0177 0001620  87.7817 272.3498 13.13470915210701
ONEWEB-0158             
1 48054U 21025N   25207.01202976  .00000205  00000+0  52726-3 0  9995
2 48054  87.8963  25.0053 0001902  93.7195 266.4151 13.13471536210816
ONEWEB-0157             
1 48055U 21025P   25207.03741906  .00000137  00000+0  34093-3 0  9990
2 48055  87.8959  25.0105 0001439  79.7427 280.3864 13.13468582210764
ONEWEB-0162             
1 48056U 21025Q   25207.54683179  .00000179  00000+0  45578-3 0  9990
2 48056  87.8960  24.9075 0001729  90.5599 269.5728 13.13469639210777
ONEWEB-0155             
1 48057U 21025R   25207.02049240  .00000304  00000+0  79843-3 0  9991
2 48057  87.8960  25.0202 0001787  84.9482 275.1851 13.13470991210878
ONEWEB-0149             
1 48058U 21025S   25207.49956477  .00000111  00000+0  27016-3 0  9993
2 48058  87.8960  24.9195 0001660  96.5983 263.5335 13.13468848210745
ONEWEB-0148             
1 48059U 21025T   25206.92909009  .00000088  00000+0  20728-3 0  9996
2 48059  87.8960  25.0575 0001238 105.0075 255.1192 13.13471970210781
ONEWEB-0160             
1 48060U 21025U   25207.55543011 -.00008039  00000+0 -22053-1 0  9992
2 48060  87.8961  24.9299 0002237  95.8542 264.2842 13.13511661210819
ONEWEB-0163             
1 48061U 21025V   25207.00695834  .00000050  00000+0  10198-3 0  9996
2 48061  87.8960  25.0195 0001564  82.5791 277.5515 13.13469780210871
ONEWEB-0159             
1 48062U 21025W   25206.99848507 -.00000076  00000+0 -24421-3 0  9995
2 48062  87.8961  25.0026 0001554  88.2708 271.8599 13.13469780210785
ONEWEB-0164             
1 48063U 21025X   25207.05604239 -.00000263  00000+0 -75642-3 0  9995
2 48063  87.8959  25.0010 0001827  90.4451 269.6888 13.13469167210784
ONEWEB-0167             
1 48064U 21025Y   25207.00781193  .00000037  00000+0  67729-4 0  9991
2 48064  87.8969  25.0424 0001980  66.6163 293.5175 13.13470220210754
ONEWEB-0166             
1 48065U 21025Z   25207.03066078  .00000278  00000+0  72702-3 0  9996
2 48065  87.8956  24.9914 0001620  93.0338 267.0977 13.13469137210832
ONEWEB-0151             
1 48066U 21025AA  25207.03234657  .00000256  00000+0  66726-3 0  9992
2 48066  87.8959  25.0142 0001843  85.8551 274.2789 13.13468615210789
ONEWEB-0170             
1 48067U 21025AB  25207.49787872  .00000175  00000+0  44436-3 0  9999
2 48067  87.8962  24.9272 0002259  86.9248 273.2140 13.13469432210792
ONEWEB-0168             
1 48068U 21025AC  25207.02557453  .00000263  00000+0  68623-3 0  9991
2 48068  87.8963  25.0026 0001770  88.6222 271.5109 13.13468611210740
ONEWEB-0173             
1 48069U 21025AD  25207.01711165  .00000241  00000+0  62592-3 0  9998
2 48069  87.8961  25.0125 0001637  75.9444 284.1867 13.13469154210986
ONEWEB-0171             
1 48070U 21025AE  25207.05434966 -.00000312  00000+0 -89069-3 0  9994
2 48070  87.8962  25.0425 0001873  87.5342 272.6001 13.13468776210802
ONEWEB-0172             
1 48071U 21025AF  25207.03404220  .00000243  00000+0  63030-3 0  9994
2 48071  87.8963  25.0133 0001795  84.6141 275.5193 13.13469314211699
ONEWEB-0174             
1 48072U 21025AG  25207.01541106  .00000218  00000+0  56213-3 0  9995
2 48072  87.8962  25.0306 0001651  91.5584 268.5735 13.13471679211017
ONEWEB-0175             
1 48073U 21025AH  25206.96970621 -.00000104  00000+0 -32026-3 0  9999
2 48073  87.8956  25.0048 0002046  83.5507 276.5855 13.13468533210666
ONEWEB-0177             
1 48074U 21025AJ  25207.05772237 -.00000313  00000+0 -89129-3 0  9992
2 48074  87.8962  25.0018 0001582  88.2113 271.9198 13.13468637210866
ONEWEB-0178             
1 48075U 21025AK  25207.53356286 -.00000139  00000+0 -41503-3 0  9998
2 48075  87.8965  24.9525 0001818  80.6798 279.4537 13.13471168210973
ONEWEB-0108             
1 48076U 21025AL  25207.03572777  .00000179  00000+0  45548-3 0  9994
2 48076  87.8957  25.0007 0001825  97.7276 262.4060 13.13468364210843
ONEWEB-0169             
1 48077U 21025AM  25206.99171910 -.00000287  00000+0 -82110-3 0  9991
2 48077  87.8963  25.0306 0001825  97.8325 262.3011 13.13469586210728
GAOFEN-12 02            
1 48079U 21026A   25207.51897184  .00000453  00000+0  66177-4 0  9990
2 48079  97.9757 202.2561 0002195 160.5718 199.5578 14.80446892233577
STARLINK-2404           
1 48093U 21027B   25206.97592994 -.00005806  00000+0 -37133-3 0  9995
2 48093  53.0536  99.5778 0001409  85.3163 274.7986 15.06389467237984
STARLINK-2412           
1 48094U 21027C   25206.46264933 -.00000538  00000+0 -17205-4 0  9995
2 48094  53.0577 111.6828 0001876  80.5603 279.5598 15.06395406238170
STARLINK-2414           
1 48095U 21027D   25207.00080178  .00000467  00000+0  50297-4 0  9991
2 48095  53.0534 109.2638 0001354 107.7712 252.3424 15.06379485237850
STARLINK-2417           
1 48096U 21027E   25206.90866012 -.00000574  00000+0 -19637-4 0  9993
2 48096  53.0564 109.6790 0001661 102.7668 257.3506 15.06380517238230
STARLINK-2418           
1 48097U 21027F   25207.08743292 -.00004174  00000+0 -26159-3 0  9994
2 48097  53.0552  88.8782 0001337 114.8690 245.2438 15.06382382238148
STARLINK-2421           
1 48098U 21027G   25207.13072357 -.00001634  00000+0 -90841-4 0  9996
2 48098  53.0557  98.6827 0001406 105.8769 254.2375 15.06391095238069
STARLINK-2428           
1 48099U 21027H   25206.91971745  .00003140  00000+0  22971-3 0  9991
2 48099  53.0546 109.6280 0001532  93.9229 266.1935 15.06384421238230
STARLINK-2430           
1 48100U 21027J   25207.08003403 -.00004034  00000+0 -25218-3 0  9992
2 48100  53.0544  88.9102 0001258 105.4871 254.6257 15.06389340238144
STARLINK-2436           
1 48101U 21027K   25207.08284645  .00001533  00000+0  12182-3 0  9997
2 48101  53.0535  99.1024 0001375  99.9815 260.1329 15.06390005238004
STARLINK-2437           
1 48102U 21027L   25207.58335648  .01456221  00000+0  23873-1 0  9999
2 48102  53.0529  83.5308 0001147  97.4615 132.8900 15.49144985238267
STARLINK-2439           
1 48104U 21027N   25206.92662253 -.00002073  00000+0 -12036-3 0  9997
2 48104  53.0557  94.6016 0001361  89.6073 270.5072 15.06384818238059
STARLINK-2440           
1 48105U 21027P   25207.49746962 -.00000950  00000+0 -44906-4 0  9995
2 48105  53.0577  37.0393 0001508 112.9336 247.1813 15.06400281238906
STARLINK-2442           
1 48106U 21027Q   25206.95102234 -.00001677  00000+0 -93722-4 0  9991
2 48106  53.0538  89.4994 0001245 108.0375 252.0750 15.06400213238527
STARLINK-2443           
1 48107U 21027R   25207.09847466 -.00001417  00000+0 -76270-4 0  9992
2 48107  53.0549  88.8275 0001080  89.1964 270.9148 15.06390956238145
STARLINK-2448           
1 48111U 21027V   25206.98696902 -.00001389  00000+0 -74370-4 0  9998
2 48111  53.0547  99.2942 0001501 119.6469 240.4670 15.06391107237995
STARLINK-2449           
1 48112U 21027W   25207.11277339 -.00003768  00000+0 -23425-3 0  9991
2 48112  53.0554 113.9311 0001519  96.6222 263.4940 15.06388337237792
